HIMAWARI-8              
1 40267U 14060A   24294.61430307 -.00000279  00000+0  00000+0 0  9992
2 40267   0.0089 231.8414 0001158   3.0160 156.5187  1.00272859 36697
